CCSDS_OMM_VERS = 2.0
CREATION_DATE  = 
ORIGINATOR     = 

OBJECT_NAME    = SHIJIAN-28 (SJ-28)
OBJECT_ID      = 2025-277A
CENTER_NAME    = EARTH
REF_FRAME      = TEME
TIME_SYSTEM    = UTC
MEAN_ELEMENT_THEORY = SGP/SGP4

EPOCH          = 2025-12-24T20:03:51.590592
MEAN_MOTION    = 1.00265315
ECCENTRICITY   = .00010023
INCLINATION    = 4.9889
RA_OF_ASC_NODE = 274.7663
ARG_OF_PERICENTER = 128.8439
MEAN_ANOMALY   = 107.6950

EPHEMERIS_TYPE = 0
CLASSIFICATION_TYPE = U
NORAD_CAT_ID   = 66549
ELEMENT_SET_NO = 999
REV_AT_EPOCH   = 40
BSTAR          = 0
MEAN_MOTION_DOT = -.337E-5
MEAN_MOTION_DDOT = 0

CCSDS_OMM_VERS = 2.0
CREATION_DATE  = 
ORIGINATOR     = 

OBJECT_NAME    = CZ-7A R/B
OBJECT_ID      = 2025-277B
CENTER_NAME    = EARTH
REF_FRAME      = TEME
TIME_SYSTEM    = UTC
MEAN_ELEMENT_THEORY = SGP/SGP4

EPOCH          = 2025-12-23T05:53:12.433056
MEAN_MOTION    = 3.27661077
ECCENTRICITY   = .66094342
INCLINATION    = 14.3426
RA_OF_ASC_NODE = 263.9223
ARG_OF_PERICENTER = 200.4471
MEAN_ANOMALY   = 110.5172

EPHEMERIS_TYPE = 0
CLASSIFICATION_TYPE = U
NORAD_CAT_ID   = 66550
ELEMENT_SET_NO = 999
REV_AT_EPOCH   = 65
BSTAR          = .68493476E-2
MEAN_MOTION_DOT = .10979967E+0
MEAN_MOTION_DDOT = .18894821E-4

CCSDS_OMM_VERS = 2.0
CREATION_DATE  = 
ORIGINATOR     = 

OBJECT_NAME    = USA 568
OBJECT_ID      = 2024-134K
CENTER_NAME    = EARTH
REF_FRAME      = TEME
TIME_SYSTEM    = UTC
MEAN_ELEMENT_THEORY = SGP/SGP4

EPOCH          = 2025-12-02T16:00:03.000096
MEAN_MOTION    = 15.87051116
ECCENTRICITY   = .0000717
INCLINATION    = 53.1571
RA_OF_ASC_NODE = 236.7807
ARG_OF_PERICENTER = 110.7411
MEAN_ANOMALY   = 313.9012

EPHEMERIS_TYPE = 0
CLASSIFICATION_TYPE = U
NORAD_CAT_ID   = 66551
ELEMENT_SET_NO = 999
REV_AT_EPOCH   = 262
BSTAR          = -.74303E-2
MEAN_MOTION_DOT = -.1709685E-1
MEAN_MOTION_DDOT = 0

CCSDS_OMM_VERS = 2.0
CREATION_DATE  = 
ORIGINATOR     = 

OBJECT_NAME    = GLOBAL-33
OBJECT_ID      = 2025-267A
CENTER_NAME    = EARTH
REF_FRAME      = TEME
TIME_SYSTEM    = UTC
MEAN_ELEMENT_THEORY = SGP/SGP4

EPOCH          = 2025-12-24T20:34:58.688544
MEAN_MOTION    = 15.31743284
ECCENTRICITY   = .00046584
INCLINATION    = 42.0212
RA_OF_ASC_NODE = 347.0330
ARG_OF_PERICENTER = 176.2786
MEAN_ANOMALY   = 183.8086

EPHEMERIS_TYPE = 0
CLASSIFICATION_TYPE = U
NORAD_CAT_ID   = 66554
ELEMENT_SET_NO = 999
REV_AT_EPOCH   = 526
BSTAR          = .46763197E-3
MEAN_MOTION_DOT = .14423E-3
MEAN_MOTION_DDOT = 0

CCSDS_OMM_VERS = 2.0
CREATION_DATE  = 
ORIGINATOR     = 

OBJECT_NAME    = STARLINK-35699
OBJECT_ID      = 2025-268A
CENTER_NAME    = EARTH
REF_FRAME      = TEME
TIME_SYSTEM    = UTC
MEAN_ELEMENT_THEORY = SGP/SGP4

EPOCH          = 2025-12-24T22:00:03.000096
MEAN_MOTION    = 15.41520627
ECCENTRICITY   = .00016411
INCLINATION    = 43.0005
RA_OF_ASC_NODE = 49.9570
ARG_OF_PERICENTER = 283.0271
MEAN_ANOMALY   = 203.1778

EPHEMERIS_TYPE = 0
CLASSIFICATION_TYPE = U
NORAD_CAT_ID   = 66557
ELEMENT_SET_NO = 999
REV_AT_EPOCH   = 611
BSTAR          = -.53072776E-1
MEAN_MOTION_DOT = -.2026387E-1
MEAN_MOTION_DDOT = 0

CCSDS_OMM_VERS = 2.0
CREATION_DATE  = 
ORIGINATOR     = 

OBJECT_NAME    = STARLINK-35695
OBJECT_ID      = 2025-268B
CENTER_NAME    = EARTH
REF_FRAME      = TEME
TIME_SYSTEM    = UTC
MEAN_ELEMENT_THEORY = SGP/SGP4

EPOCH          = 2025-12-24T22:00:03.000096
MEAN_MOTION    = 15.42364850
ECCENTRICITY   = .00014607
INCLINATION    = 43.0006
RA_OF_ASC_NODE = 49.9291
ARG_OF_PERICENTER = 284.0996
MEAN_ANOMALY   = 213.7191

EPHEMERIS_TYPE = 0
CLASSIFICATION_TYPE = U
NORAD_CAT_ID   = 66558
ELEMENT_SET_NO = 999
REV_AT_EPOCH   = 611
BSTAR          = -.52015945E-1
MEAN_MOTION_DOT = -.2041518E-1
MEAN_MOTION_DDOT = 0

CCSDS_OMM_VERS = 2.0
CREATION_DATE  = 
ORIGINATOR     = 

OBJECT_NAME    = STARLINK-35419
OBJECT_ID      = 2025-268C
CENTER_NAME    = EARTH
REF_FRAME      = TEME
TIME_SYSTEM    = UTC
MEAN_ELEMENT_THEORY = SGP/SGP4

EPOCH          = 2025-12-24T22:00:03.000096
MEAN_MOTION    = 15.47499652
ECCENTRICITY   = .00011616
INCLINATION    = 43.0007
RA_OF_ASC_NODE = 49.8086
ARG_OF_PERICENTER = 275.6069
MEAN_ANOMALY   = 271.3234

EPHEMERIS_TYPE = 0
CLASSIFICATION_TYPE = U
NORAD_CAT_ID   = 66559
ELEMENT_SET_NO = 999
REV_AT_EPOCH   = 611
BSTAR          = -.44312217E-1
MEAN_MOTION_DOT = -.2072349E-1
MEAN_MOTION_DDOT = 0

CCSDS_OMM_VERS = 2.0
CREATION_DATE  = 
ORIGINATOR     = 

OBJECT_NAME    = STARLINK-35411
OBJECT_ID      = 2025-268D
CENTER_NAME    = EARTH
REF_FRAME      = TEME
TIME_SYSTEM    = UTC
MEAN_ELEMENT_THEORY = SGP/SGP4

EPOCH          = 2025-12-24T22:00:03.000096
MEAN_MOTION    = 15.48030535
ECCENTRICITY   = .00010717
INCLINATION    = 43.0004
RA_OF_ASC_NODE = 49.7951
ARG_OF_PERICENTER = 274.1886
MEAN_ANOMALY   = 278.3341

EPHEMERIS_TYPE = 0
CLASSIFICATION_TYPE = U
NORAD_CAT_ID   = 66560
ELEMENT_SET_NO = 999
REV_AT_EPOCH   = 611
BSTAR          = -.43504981E-1
MEAN_MOTION_DOT = -.2072874E-1
MEAN_MOTION_DDOT = 0

CCSDS_OMM_VERS = 2.0
CREATION_DATE  = 
ORIGINATOR     = 

OBJECT_NAME    = STARLINK-35305
OBJECT_ID      = 2025-268E
CENTER_NAME    = EARTH
REF_FRAME      = TEME
TIME_SYSTEM    = UTC
MEAN_ELEMENT_THEORY = SGP/SGP4

EPOCH          = 2025-12-24T22:00:03.000096
MEAN_MOTION    = 15.49709019
ECCENTRICITY   = .00010199
INCLINATION    = 43.0004
RA_OF_ASC_NODE = 49.7605
ARG_OF_PERICENTER = 271.4038
MEAN_ANOMALY   = 295.0782

EPHEMERIS_TYPE = 0
CLASSIFICATION_TYPE = U
NORAD_CAT_ID   = 66561
ELEMENT_SET_NO = 999
REV_AT_EPOCH   = 611
BSTAR          = -.41141409E-1
MEAN_MOTION_DOT = -.2079736E-1
MEAN_MOTION_DDOT = 0

CCSDS_OMM_VERS = 2.0
CREATION_DATE  = 
ORIGINATOR     = 

OBJECT_NAME    = STARLINK-35579
OBJECT_ID      = 2025-268F
CENTER_NAME    = EARTH
REF_FRAME      = TEME
TIME_SYSTEM    = UTC
MEAN_ELEMENT_THEORY = SGP/SGP4

EPOCH          = 2025-12-24T22:00:03.000096
MEAN_MOTION    = 15.48869294
ECCENTRICITY   = .00011691
INCLINATION    = 43.0010
RA_OF_ASC_NODE = 49.7765
ARG_OF_PERICENTER = 271.9207
MEAN_ANOMALY   = 287.8626

EPHEMERIS_TYPE = 0
CLASSIFICATION_TYPE = U
NORAD_CAT_ID   = 66562
ELEMENT_SET_NO = 999
REV_AT_EPOCH   = 611
BSTAR          = -.42281079E-1
MEAN_MOTION_DOT = -.2075057E-1
MEAN_MOTION_DDOT = 0

CCSDS_OMM_VERS = 2.0
CREATION_DATE  = 
ORIGINATOR     = 

OBJECT_NAME    = STARLINK-35437
OBJECT_ID      = 2025-268G
CENTER_NAME    = EARTH
REF_FRAME      = TEME
TIME_SYSTEM    = UTC
MEAN_ELEMENT_THEORY = SGP/SGP4

EPOCH          = 2025-12-24T22:00:03.000096
MEAN_MOTION    = 15.50545051
ECCENTRICITY   = .00010809
INCLINATION    = 43.0009
RA_OF_ASC_NODE = 49.7450
ARG_OF_PERICENTER = 268.0892
MEAN_ANOMALY   = 304.5322

EPHEMERIS_TYPE = 0
CLASSIFICATION_TYPE = U
NORAD_CAT_ID   = 66563
ELEMENT_SET_NO = 999
REV_AT_EPOCH   = 611
BSTAR          = -.39880519E-1
MEAN_MOTION_DOT = -.2077613E-1
MEAN_MOTION_DDOT = 0

CCSDS_OMM_VERS = 2.0
CREATION_DATE  = 
ORIGINATOR     = 

OBJECT_NAME    = STARLINK-35358
OBJECT_ID      = 2025-268H
CENTER_NAME    = EARTH
REF_FRAME      = TEME
TIME_SYSTEM    = UTC
MEAN_ELEMENT_THEORY = SGP/SGP4

EPOCH          = 2025-12-24T22:00:03.000096
MEAN_MOTION    = 15.51382233
ECCENTRICITY   = .0001096
INCLINATION    = 43.0010
RA_OF_ASC_NODE = 49.7316
ARG_OF_PERICENTER = 268.9523
MEAN_ANOMALY   = 309.2462

EPHEMERIS_TYPE = 0
CLASSIFICATION_TYPE = U
NORAD_CAT_ID   = 66564
ELEMENT_SET_NO = 999
REV_AT_EPOCH   = 611
BSTAR          = -.3868272E-1
MEAN_MOTION_DOT = -.207705E-1
MEAN_MOTION_DDOT = 0

