SHIJIAN-28 (SJ-28)      
1 66549U 25277A   25358.83601378 -.00000337  00000+0  00000+0 0  9994
2 66549   4.9889 274.7663 0001002 128.8439 107.6950  1.00265315   408
CZ-7A R/B               
1 66550U 25277B   25357.24528279  .10979967  18895-4  68493-2 0  9991
2 66550  14.3426 263.9223 6609434 200.4471 110.5172  3.27661077   658
USA 568                 
1 66551U 24134K   25336.66670139 -.01709685  00000+0 -74303-2 0  9990
2 66551  53.1571 236.7807 0000717 110.7411 313.9012 15.87051116  2624
GLOBAL-33               
1 66554U 25267A   25358.85762371  .00014423  00000+0  46763-3 0  9992
2 66554  42.0212 347.0330 0004658 176.2786 183.8086 15.31743284  5264
STARLINK-35699          
1 66557U 25268A   25358.91670139 -.02026387  00000+0 -53073-1 0  9999
2 66557  43.0005  49.9570 0001641 283.0271 203.1778 15.41520627  6111
STARLINK-35695          
1 66558U 25268B   25358.91670139 -.02041518  00000+0 -52016-1 0  9999
2 66558  43.0006  49.9291 0001460 284.0996 213.7191 15.42364850  6118
STARLINK-35419          
1 66559U 25268C   25358.91670139 -.02072349  00000+0 -44312-1 0  9996
2 66559  43.0007  49.8086 0001161 275.6069 271.3234 15.47499652  6118
STARLINK-35411          
1 66560U 25268D   25358.91670139 -.02072874  00000+0 -43505-1 0  9994
2 66560  43.0004  49.7951 0001071 274.1886 278.3341 15.48030535  6116
STARLINK-35305          
1 66561U 25268E   25358.91670139 -.02079736  00000+0 -41141-1 0  9993
2 66561  43.0004  49.7605 0001019 271.4038 295.0782 15.49709019  6110
STARLINK-35579          
1 66562U 25268F   25358.91670139 -.02075057  00000+0 -42281-1 0  9992
2 66562  43.0010  49.7765 0001169 271.9207 287.8626 15.48869294  6111
STARLINK-35437          
1 66563U 25268G   25358.91670139 -.02077613  00000+0 -39881-1 0  9995
2 66563  43.0009  49.7450 0001080 268.0892 304.5322 15.50545051  6115
STARLINK-35358          
1 66564U 25268H   25358.91670139 -.02077050  00000+0 -38683-1 0  9990
2 66564  43.0010  49.7316 0001096 268.9523 309.2462 15.51382233  6115
